{"type": "FeatureCollection", "features": [ {"type": "Feature", "properties": {"norad_id": 35480, "name": "IRIDIUM 33 DEB", "group": "iridium-33-debris", "lat": -38.56312195776341, "lon": -157.12769476937547, "alt_km": 742.5352696255941, "timestamp": "2025-12-24T03:53:30.032355+00:00", "meta": {"OBJECT_NAME": "IRIDIUM 33 DEB", "OBJECT_ID": "1997-051QA", "EPOCH": "2025-12-23T11:58:47.175168", "MEAN_MOTION": 14.49804524, "ECCENTRICITY": 0.0016205, "INCLINATION": 86.3563, "RA_OF_ASC_NODE": 20.2477, "ARG_OF_PERICENTER": 73.1284, "MEAN_ANOMALY": 287.1696, "EPHEMERIS_TYPE": 0, "CLASSIFICATION_TYPE": "U", "NORAD_CAT_ID": 35480, "ELEMENT_SET_NO": 999, "REV_AT_EPOCH": 87187, "BSTAR": 0.00052904, "MEAN_MOTION_DOT": 2.063e-05, "MEAN_MOTION_DDOT": 0}, "tle": {"line1": "1 35480U 97051QA  25357.49915712  .00002063  00000+0  52904-3 0  9995", "line2": "2 35480  86.3563  20.2477 0016205  73.1284 287.1696 14.49804524871875"}}, "geometry": {"type": "Point", "coordinates": [-157.12769476937547, -38.56312195776341]}}, {"type": "Feature", "properties": {"norad_id": 35484, "name": "IRIDIUM 33 DEB", "group": "iridium-33-debris", "lat": -63.46761515337572, "lon": 174.7224563282795, "alt_km": 591.7833745308708, "timestamp": "2025-12-24T03:53:30.032366+00:00", "meta": {"OBJECT_NAME": "IRIDIUM 33 DEB", "OBJECT_ID": "1997-051QE", "EPOCH": "2025-12-23T05:59:10.354560", "MEAN_MOTION": 14.99264182, "ECCENTRICITY": 0.00245796, "INCLINATION": 86.3609, "RA_OF_ASC_NODE": 347.8264, "ARG_OF_PERICENTER": 91.5392, "MEAN_ANOMALY": 268.8655, "EPHEMERIS_TYPE": 0, "CLASSIFICATION_TYPE": "U", "NORAD_CAT_ID": 35484, "ELEMENT_SET_NO": 999, "REV_AT_EPOCH": 62173, "BSTAR": 0.0029536278, "MEAN_MOTION_DOT": 0.00036413, "MEAN_MOTION_DDOT": 0}, "tle": {"line1": "1 35484U 97051QE  25357.24942540  .00036413  00000+0  29536-2 0  9991", "line2": "2 35484  86.3609 347.8264 0024579  91.5392 268.8655 14.99264182621733"}}, "geometry": {"type": "Point", "coordinates": [174.7224563282795, -63.46761515337572]}}, {"type": "Feature", "properties": {"norad_id": 35488, "name": "IRIDIUM 33 DEB", "group": "iridium-33-debris", "lat": 64.62201515556515, "lon": -56.601723059247995, "alt_km": 602.6256832011304, "timestamp": "2025-12-24T03:53:30.032377+00:00", "meta": {"OBJECT_NAME": "IRIDIUM 33 DEB", "OBJECT_ID": "1997-051QJ", "EPOCH": "2025-12-22T19:13:13.565280", "MEAN_MOTION": 14.8329676, "ECCENTRICITY": 0.00284188, "INCLINATION": 86.3248, "RA_OF_ASC_NODE": 296.2385, "ARG_OF_PERICENTER": 9.7501, "MEAN_ANOMALY": 350.4267, "EPHEMERIS_TYPE": 0, "CLASSIFICATION_TYPE": "U", "NORAD_CAT_ID": 35488, "ELEMENT_SET_NO": 999, "REV_AT_EPOCH": 88415, "BSTAR": 0.0016428334, "MEAN_MOTION_DOT": 0.00013576, "MEAN_MOTION_DDOT": 0}, "tle": {"line1": "1 35488U 97051QJ  25356.80085145  .00013576  00000+0  16428-2 0  9996", "line2": "2 35488  86.3248 296.2385 0028418   9.7501 350.4267 14.83296760884150"}}, "geometry": {"type": "Point", "coordinates": [-56.601723059247995, 64.62201515556515]}}, {"type": "Feature", "properties": {"norad_id": 35616, "name": "IRIDIUM 33 DEB", "group": "iridium-33-debris", "lat": 7.160481755232374, "lon": 160.0912262483616, "alt_km": 619.5191117749582, "timestamp": "2025-12-24T03:53:30.032387+00:00", "meta": {"OBJECT_NAME": "IRIDIUM 33 DEB", "OBJECT_ID": "1997-051QN", "EPOCH": "2025-12-21T16:46:45.287328", "MEAN_MOTION": 14.82015021, "ECCENTRICITY": 0.00114093, "INCLINATION": 86.3545, "RA_OF_ASC_NODE": 341.6744, "ARG_OF_PERICENTER": 134.0095, "MEAN_ANOMALY": 226.2069, "EPHEMERIS_TYPE": 0, "CLASSIFICATION_TYPE": "U", "NORAD_CAT_ID": 35616, "ELEMENT_SET_NO": 999, "REV_AT_EPOCH": 87707, "BSTAR": 0.0013754653, "MEAN_MOTION_DOT": 0.00010957, "MEAN_MOTION_DDOT": 0}, "tle": {"line1": "1 35616U 97051QN  25355.69913527  .00010957  00000+0  13755-2 0  9999", "line2": "2 35616  86.3545 341.6744 0011409 134.0095 226.2069 14.82015021877070"}}, "geometry": {"type": "Point", "coordinates": [160.0912262483616, 7.160481755232374]}}, {"type": "Feature", "properties": {"norad_id": 35618, "name": "IRIDIUM 33 DEB", "group": "iridium-33-debris", "lat": 17.982796711668186, "lon": 167.32104059509413, "alt_km": 738.6513037411005, "timestamp": "2025-12-24T03:53:30.032398+00:00", "meta": {"OBJECT_NAME": "IRIDIUM 33 DEB", "OBJECT_ID": "1997-051QQ", "EPOCH": "2025-12-21T17:16:24.492288", "MEAN_MOTION": 14.52331103, "ECCENTRICITY": 0.00284149, "INCLINATION": 86.341, "RA_OF_ASC_NODE": 349.5786, "ARG_OF_PERICENTER": 351.4344, "MEAN_ANOMALY": 8.6373, "EPHEMERIS_TYPE": 0, "CLASSIFICATION_TYPE": "U", "NORAD_CAT_ID": 35618, "ELEMENT_SET_NO": 999, "REV_AT_EPOCH": 65524, "BSTAR": 0.00039049847, "MEAN_MOTION_DOT": 1.617e-05, "MEAN_MOTION_DDOT": 0}, "tle": {"line1": "1 35618U 97051QQ  25355.71972792  .00001617  00000+0  39050-3 0  9993", "line2": "2 35618  86.3410 349.5786 0028414 351.4344   8.6373 14.52331103655244"}}, "geometry": {"type": "Point", "coordinates": [167.32104059509413, 17.982796711668186]}}, {"type": "Feature", "properties": {"norad_id": 35620, "name": "IRIDIUM 33 DEB", "group": "iridium-33-debris", "lat": -72.32989195811582, "lon": -158.79450428963224, "alt_km": 730.4110874363669, "timestamp": "2025-12-24T03:53:30.032409+00:00", "meta": {"OBJECT_NAME": "IRIDIUM 33 DEB", "OBJECT_ID": "1997-051QS", "EPOCH": "2025-12-22T20:30:28.552032", "MEAN_MOTION": 14.38347661, "ECCENTRICITY": 0.01386054, "INCLINATION": 86.3896, "RA_OF_ASC_NODE": 213.1884, "ARG_OF_PERICENTER": 225.2631, "MEAN_ANOMALY": 133.722, "EPHEMERIS_TYPE": 0, "CLASSIFICATION_TYPE": "U", "NORAD_CAT_ID": 35620, "ELEMENT_SET_NO": 999, "REV_AT_EPOCH": 60111, "BSTAR": 0.0048145094, "MEAN_MOTION_DOT": 0.00016436, "MEAN_MOTION_DDOT": 0}, "tle": {"line1": "1 35620U 97051QS  25356.85449713  .00016436  00000+0  48145-2 0  9993", "line2": "2 35620  86.3896 213.1884 0138605 225.2631 133.7220 14.38347661601119"}}, "geometry": {"type": "Point", "coordinates": [-158.79450428963224, -72.32989195811582]}}, {"type": "Feature", "properties": {"norad_id": 35622, "name": "IRIDIUM 33 DEB", "group": "iridium-33-debris", "lat": -65.63822574029977, "lon": 86.41267776171398, "alt_km": 554.1421328260121, "timestamp": "2025-12-24T03:53:30.032419+00:00", "meta": {"OBJECT_NAME": "IRIDIUM 33 DEB", "OBJECT_ID": "1997-051QU", "EPOCH": "2025-12-23T17:21:42.229152", "MEAN_MOTION": 15.05849301, "ECCENTRICITY": 0.0003572, "INCLINATION": 86.199, "RA_OF_ASC_NODE": 258.1866, "ARG_OF_PERICENTER": 286.0081, "MEAN_ANOMALY": 102.9668, "EPHEMERIS_TYPE": 0, "CLASSIFICATION_TYPE": "U", "NORAD_CAT_ID": 35622, "ELEMENT_SET_NO": 999, "REV_AT_EPOCH": 87525, "BSTAR": 0.0038142, "MEAN_MOTION_DOT": 0.00055737, "MEAN_MOTION_DDOT": 0}, "tle": {"line1": "1 35622U 97051QU  25357.72340543  .00055737  00000+0  38142-2 0  9996", "line2": "2 35622  86.1990 258.1866 0003572 286.0081 102.9668 15.05849301875256"}}, "geometry": {"type": "Point", "coordinates": [86.41267776171398, -65.63822574029977]}}, {"type": "Feature", "properties": {"norad_id": 35628, "name": "IRIDIUM 33 DEB", "group": "iridium-33-debris", "lat": -30.99952719325437, "lon": 1.785929060342306, "alt_km": 668.6955269931959, "timestamp": "2025-12-24T03:53:30.032430+00:00", "meta": {"OBJECT_NAME": "IRIDIUM 33 DEB", "OBJECT_ID": "1997-051RA", "EPOCH": "2025-12-23T18:12:55.205856", "MEAN_MOTION": 14.67731928, "ECCENTRICITY": 0.0009394, "INCLINATION": 86.3568, "RA_OF_ASC_NODE": 4.1597, "ARG_OF_PERICENTER": 300.2687, "MEAN_ANOMALY": 59.7597, "EPHEMERIS_TYPE": 0, "CLASSIFICATION_TYPE": "U", "NORAD_CAT_ID": 35628, "ELEMENT_SET_NO": 999, "REV_AT_EPOCH": 86608, "BSTAR": 0.0013869, "MEAN_MOTION_DOT": 7.927e-05, "MEAN_MOTION_DDOT": 0}, "tle": {"line1": "1 35628U 97051RA  25357.75897229  .00007927  00000+0  13869-2 0  9990", "line2": "2 35628  86.3568   4.1597 0009394 300.2687  59.7597 14.67731928866087"}}, "geometry": {"type": "Point", "coordinates": [1.785929060342306, -30.99952719325437]}}, {"type": "Feature", "properties": {"norad_id": 35631, "name": "IRIDIUM 33 DEB", "group": "iridium-33-debris", "lat": 69.40610875653222, "lon": -173.68109428429605, "alt_km": 715.4100687178206, "timestamp": "2025-12-24T03:53:30.032441+00:00", "meta": {"OBJECT_NAME": "IRIDIUM 33 DEB", "OBJECT_ID": "1997-051RD", "EPOCH": "2025-12-23T19:55:07.145184", "MEAN_MOTION": 14.47339905, "ECCENTRICITY": 0.0019258, "INCLINATION": 86.366, "RA_OF_ASC_NODE": 16.1993, "ARG_OF_PERICENTER": 85.1182, "MEAN_ANOMALY": 95.1858, "EPHEMERIS_TYPE": 0, "CLASSIFICATION_TYPE": "U", "NORAD_CAT_ID": 35631, "ELEMENT_SET_NO": 999, "REV_AT_EPOCH": 87357, "BSTAR": 0.00033518, "MEAN_MOTION_DOT": 1.25e-05, "MEAN_MOTION_DDOT": 0}, "tle": {"line1": "1 35631U 97051RD  25357.82994381  .00001250  00000+0  33518-3 0  9996", "line2": "2 35631  86.3660  16.1993 0019258  85.1182  95.1858 14.47339905873579"}}, "geometry": {"type": "Point", "coordinates": [-173.68109428429605, 69.40610875653222]}}, {"type": "Feature", "properties": {"norad_id": 35680, "name": "IRIDIUM 33 DEB", "group": "iridium-33-debris", "lat": 79.21581650661298, "lon": 37.439105723726954, "alt_km": 917.3715205308708, "timestamp": "2025-12-24T03:53:30.032451+00:00", "meta": {"OBJECT_NAME": "IRIDIUM 33 DEB", "OBJECT_ID": "1997-051RJ", "EPOCH": "2025-12-23T19:54:46.035936", "MEAN_MOTION": 14.21087614, "ECCENTRICITY": 0.0150623, "INCLINATION": 86.102, "RA_OF_ASC_NODE": 16.6115, "ARG_OF_PERICENTER": 242.9908, "MEAN_ANOMALY": 297.7564, "EPHEMERIS_TYPE": 0, "CLASSIFICATION_TYPE": "U", "NORAD_CAT_ID": 35680, "ELEMENT_SET_NO": 999, "REV_AT_EPOCH": 60858, "BSTAR": 0.0032353, "MEAN_MOTION_DOT": 7.897e-05, "MEAN_MOTION_DDOT": 0}, "tle": {"line1": "1 35680U 97051RJ  25357.82969949  .00007897  00000+0  32353-2 0  9990", "line2": "2 35680  86.1020  16.6115 0150623 242.9908 297.7564 14.21087614608583"}}, "geometry": {"type": "Point", "coordinates": [37.439105723726954, 79.21581650661298]}}]}